NORAD_CAT_ID,OBJECT_NAME,OBJECT_TYPE,EPOCH,MEAN_MOTION,ECCENTRICITY,INCLINATION,RA_OF_ASC_NODE,ARG_OF_PERICENTER,MEAN_ANOMALY,BSTAR,MEAN_MOTION_DOT,MEAN_MOTION_DDOT,TLE_LINE0,TLE_LINE1,TLE_LINE2,SEMIMAJOR_AXIS,PERIOD,APOGEE,PERIGEE,DECAYED
51738.0,STARLINK-3515,PAYLOAD,2023-03-01 22:41:17,15.08841688,0.0001229,53.2135,234.0224,74.1827,285.9301,0.00065442,0.00010143,0.0,0 STARLINK-3515,1 51738U 22016AA  23060.94533596  .00010143  00000-0  65442-3 0  9993,2 51738  53.2135 234.0224 0001229  74.1827 285.9301 15.08841688 58049,6917.875,95.437,540.59,538.89,0.0
51738.0,STARLINK-3515,PAYLOAD,2023-03-02 17:45:54,15.08846375,0.0001319,53.2137,230.4542,76.4232,283.6907,0.00038935,5.915e-05,0.0,0 STARLINK-3515,1 51738U 22016AA  23061.74021633  .00005915  00000-0  38935-3 0  9994,2 51738  53.2137 230.4542 0001319  76.4232 283.6907 15.08846375 57054,6917.861,95.437,540.638,538.813,0.0
51738.0,STARLINK-3515,PAYLOAD,2023-03-02 19:21:17,15.08847116,0.0001281,53.2139,230.157,78.4651,281.6485,0.00040627,6.185e-05,0.0,0 STARLINK-3515,1 51738U 22016AA  23061.80645628  .00006185  00000-0  40627-3 0  9998,2 51738  53.2139 230.1570 0001281  78.4651 281.6485 15.08847116 58176,6917.859,95.437,540.61,538.837,0.0
51738.0,STARLINK-3515,PAYLOAD,2023-03-03 17:36:41,15.08852598,0.000131,53.2136,225.9931,79.6851,280.4289,0.00032651,4.914e-05,0.0,0 STARLINK-3515,1 51738U 22016AA  23062.73381163  .00004914  00000-0  32651-3 0  9998,2 51738  53.2136 225.9931 0001310  79.6851 280.4289 15.08852598 58319,6917.842,95.437,540.613,538.801,0.0
51738.0,STARLINK-3515,PAYLOAD,2023-03-03 22:22:50,15.0886307,0.0001394,53.2134,225.0996,80.5997,279.5152,0.00052286,8.048e-05,0.0,0 STARLINK-3515,1 51738U 22016AA  23062.93252709  .00008048  00000-0  52286-3 0  9991,2 51738  53.2134 225.0996 0001394  80.5997 279.5152 15.08863070 58341,6917.81,95.436,540.639,538.711,0.0
51738.0,STARLINK-3515,PAYLOAD,2023-03-04 12:41:18,15.0884362,0.0001424,53.2133,222.4243,93.6744,266.4411,0.00011971,1.618e-05,0.0,0 STARLINK-3515,1 51738U 22016AA  23063.52869108  .00001618  00000-0  11971-3 0  9996,2 51738  53.2133 222.4243 0001424  93.6744 266.4411 15.08843620 57324,6917.869,95.437,540.719,538.749,0.0
51738.0,STARLINK-3515,PAYLOAD,2023-03-04 14:16:41,15.0884672,0.0002047,53.2145,222.1279,104.5316,255.5903,0.00015242,2.139e-05,0.0,0 STARLINK-3515,1 51738U 22016AA  23063.59493015  .00002139  00000-0  15242-3 0  9997,2 51738  53.2145 222.1279 0002047 104.5316 255.5903 15.08846720 58445,6917.86,95.437,541.141,538.309,0.0
51738.0,STARLINK-3515,PAYLOAD,2023-03-04 19:02:51,15.08857827,0.000121,53.2136,221.2352,86.8207,273.2924,0.0014454,0.00022802,0.0,0 STARLINK-3515,1 51738U 22016AA  23063.79364950  .00022802  00000-0  14454-2 0  9996,2 51738  53.2136 221.2352 0001210  86.8207 273.2924 15.08857827 58472,6917.826,95.436,540.528,538.854,0.0
51738.0,STARLINK-3515,PAYLOAD,2023-03-05 17:18:16,15.08833492,0.0001453,53.2139,217.0738,110.3023,249.8125,0.001629,0.00025728,0.0,0 STARLINK-3515,1 51738U 22016AA  23064.72102514  .00025728  00000-0  16290-2 0  9996,2 51738  53.2139 217.0738 0001453 110.3023 249.8125 15.08833492 58614,6917.9,95.438,540.77,538.76,0.0
51738.0,STARLINK-3515,PAYLOAD,2023-03-06 02:50:35,15.08859212,8.07e-05,53.2137,215.2887,104.1055,256.0026,0.0022152,0.00035162,0.0,0 STARLINK-3515,1 51738U 22016AA  23065.11846358  .00035162  00000-0  22152-2 0  9998,2 51738  53.2137 215.2887 0000807 104.1055 256.0026 15.08859212 58679,6917.822,95.436,540.245,539.128,0.0
51738.0,STARLINK-3515,PAYLOAD,2023-03-06 18:44:25,15.08874676,0.0001229,53.2144,212.3155,104.8991,255.2138,0.0012703,0.00020006,0.0,0 STARLINK-3515,1 51738U 22016AA  23065.78085449  .00020006  00000-0  12703-2 0  9999,2 51738  53.2144 212.3155 0001229 104.8991 255.2138 15.08874676 58775,6917.774,95.435,540.49,538.789,0.0
51738.0,STARLINK-3515,PAYLOAD,2023-03-07 02:41:21,15.08850564,0.0001924,53.2135,210.8272,75.3948,284.7257,0.0013621,0.00021463,0.0,0 STARLINK-3515,1 51738U 22016AA  23066.11205658  .00021463  00000-0  13621-2 0  9991,2 51738  53.2135 210.8272 0001924  75.3948 284.7257 15.08850564 58829,6917.848,95.437,541.044,538.382,0.0
51738.0,STARLINK-3515,PAYLOAD,2023-03-07 10:38:17,15.08850451,0.0001382,53.2139,209.3415,84.3002,275.8148,0.0015304,0.00024159,0.0,0 STARLINK-3515,1 51738U 22016AA  23066.44325580  .00024159  00000-0  15304-2 0  9999,2 51738  53.2139 209.3415 0001382  84.3002 275.8148 15.08850451 58874,6917.848,95.437,540.669,538.757,0.0
51738.0,STARLINK-3515,PAYLOAD,2023-03-08 02:32:08,15.08852746,0.000187,53.2137,206.3671,87.2214,272.8992,0.001144,0.00017972,0.0,0 STARLINK-3515,1 51738U 22016AA  23067.10565538  .00017972  00000-0  11440-2 0  9994,2 51738  53.2137 206.3671 0001870  87.2214 272.8992 15.08852746 58976,6917.841,95.437,541.0,538.413,0.0
51738.0,STARLINK-3515,PAYLOAD,2023-03-08 08:53:41,15.08815686,0.0001607,53.2137,205.1772,99.7767,260.3407,0.00051503,7.913e-05,0.0,0 STARLINK-3515,1 51738U 22016AA  23067.37061909  .00007913  00000-0  51503-3 0  9995,2 51738  53.2137 205.1772 0001607  99.7767 260.3407 15.08815686 59015,6917.955,95.439,540.931,538.708,0.0
51738.0,STARLINK-3515,PAYLOAD,2023-03-09 02:22:56,15.0885752,0.0001736,53.2113,201.9064,83.4302,276.6887,0.0014293,0.00022544,0.0,0 STARLINK-3515,1 51738U 22016AA  23068.09926344  .00022544  00000-0  14293-2 0  9999,2 51738  53.2113 201.9064 0001736  83.4302 276.6887 15.08857520 59122,6917.827,95.436,540.893,538.491,0.0
51738.0,STARLINK-3515,PAYLOAD,2023-03-09 13:30:38,15.08861049,0.0001899,53.2118,199.8238,87.1152,273.0058,0.0013736,0.00021653,0.0,0 STARLINK-3515,1 51738U 22016AA  23068.56294213  .00021653  00000-0  13736-2 0  9995,2 51738  53.2118 199.8238 0001899  87.1152 273.0058 15.08861049 59198,6917.816,95.436,540.995,538.367,0.0
51738.0,STARLINK-3515,PAYLOAD,2023-03-10 11:46:02,15.08853545,0.0001606,53.2137,195.6611,27.7643,332.3435,0.00093754,0.0001467,0.0,0 STARLINK-3515,1 51738U 22016AA  23069.49030371  .00014670  00000-0  93754-3 0  9991,2 51738  53.2137 195.6611 0001606  27.7643 332.3435 15.08853545 59335,6917.839,95.437,540.815,538.593,0.0
51738.0,STARLINK-3515,PAYLOAD,2023-03-10 18:07:34,15.08850831,0.0001311,53.2141,194.472,95.7846,264.3295,0.00059462,9.191e-05,0.0,0 STARLINK-3515,1 51738U 22016AA  23069.75526006  .00009191  00000-0  59462-3 0  9995,2 51738  53.2141 194.4720 0001311  95.7846 264.3295 15.08850831 59378,6917.847,95.437,540.619,538.805,0.0
51738.0,STARLINK-3515,PAYLOAD,2023-03-11 08:26:03,15.08829303,8.78e-05,53.2153,191.7971,98.2292,261.88,-0.00019641,-3.411e-05,0.0,0 STARLINK-3515,1 51738U 22016AA  23070.35142557 -.00003411  00000-0 -19641-3 0  9994,2 51738  53.2153 191.7971 0000878  98.2292 261.8800 15.08829303 59463,6917.913,95.438,540.385,539.171,0.0
51738.0,STARLINK-3515,PAYLOAD,2023-03-11 13:12:12,15.08839822,0.0001661,53.2149,190.9038,113.0364,247.0803,0.00011316,1.513e-05,0.0,0 STARLINK-3515,1 51738U 22016AA  23070.55014337  .00001513  00000-0  11316-3 0  9990,2 51738  53.2149 190.9038 0001661 113.0364 247.0803 15.08839822 59499,6917.881,95.438,540.895,538.597,0.0
51738.0,STARLINK-3515,PAYLOAD,2023-03-12 08:16:50,15.08834572,0.0001247,53.217,187.336,103.3401,256.7731,0.00011363,1.521e-05,0.0,0 STARLINK-3515,1 51738U 22016AA  23071.34503056  .00001521  00000-0  11363-3 0  9990,2 51738  53.2170 187.3360 0001247 103.3401 256.7731 15.08834572 59613,6917.897,95.438,540.625,538.899,0.0
51738.0,STARLINK-3515,PAYLOAD,2023-03-12 13:03:00,15.08834928,0.0001343,53.2157,186.4434,103.0521,257.0622,8.5402e-05,1.071e-05,0.0,0 STARLINK-3515,1 51738U 22016AA  23071.54375019  .00001071  00000-0  85402-4 0  9994,2 51738  53.2157 186.4434 0001343 103.0521 257.0622 15.08834928 59648,6917.896,95.438,540.69,538.832,0.0
51738.0,STARLINK-3515,PAYLOAD,2023-03-13 08:07:38,15.08831036,0.0001446,53.2155,182.8761,104.6695,255.4458,1.0384e-05,-1.23e-06,0.0,0 STARLINK-3515,1 51738U 22016AA  23072.33863854 -.00000123  00000-0  10384-4 0  9996,2 51738  53.2155 182.8761 0001446 104.6695 255.4458 15.08831036 59761,6917.908,95.438,540.773,538.772,0.0
51738.0,STARLINK-3515,PAYLOAD,2023-03-14 06:23:01,15.08846044,0.0001349,53.2146,178.7126,94.7951,265.3195,0.00013489,1.86e-05,0.0,0 STARLINK-3515,1 51738U 22016AA  23073.26599478  .00001860  00000-0  13489-3 0  9993,2 51738  53.2146 178.7126 0001349  94.7951 265.3195 15.08846044 59905,6917.862,95.437,540.66,538.794,0.0
51738.0,STARLINK-3515,PAYLOAD,2023-03-14 11:09:11,15.08845459,0.0001308,53.2143,177.8207,93.5423,266.5719,0.00038476,5.842e-05,0.0,0 STARLINK-3515,1 51738U 22016AA  23073.46471620  .00005842  00000-0  38476-3 0  9990,2 51738  53.2143 177.8207 0001308  93.5423 266.5719 15.08845459 59935,6917.864,95.437,540.634,538.824,0.0
51738.0,STARLINK-3515,PAYLOAD,2023-03-14 15:55:20,15.08851573,0.0002234,53.2139,176.9268,107.6967,252.4269,0.00031724,4.766e-05,0.0,0 STARLINK-3515,1 51738U 22016AA  23073.66343237  .00004766  00000-0  31724-3 0  9997,2 51738  53.2139 176.9268 0002234 107.6967 252.4269 15.08851573 59967,6917.845,95.437,541.255,538.165,0.0
51738.0,STARLINK-3515,PAYLOAD,2023-03-14 23:52:16,15.08858148,0.0002012,53.2141,175.4412,70.0653,290.0556,0.00042446,6.477e-05,0.0,0 STARLINK-3515,1 51738U 22016AA  23073.99462998  .00006477  00000-0  42446-3 0  9993,2 51738  53.2141 175.4412 0002012  70.0653 290.0556 15.08858148 60014,6917.825,95.436,541.082,538.298,0.0
51738.0,STARLINK-3515,PAYLOAD,2023-03-15 12:35:20,15.08867053,0.0001798,53.2155,173.0629,88.2825,271.8373,0.00039554,6.017e-05,0.0,0 STARLINK-3515,1 51738U 22016AA  23074.52453825  .00006017  00000-0  39554-3 0  9998,2 51738  53.2155 173.0629 0001798  88.2825 271.8373 15.08867053 60092,6917.798,95.436,540.907,538.419,0.0
51738.0,STARLINK-3515,PAYLOAD,2023-03-16 06:04:35,15.08829143,0.0001824,53.2142,169.7904,90.5413,269.5788,-0.00042116,-6.983e-05,0.0,0 STARLINK-3515,1 51738U 22016AA  23075.25318731 -.00006983  00000-0 -42116-3 0  9997,2 51738  53.2142 169.7904 0001824  90.5413 269.5788 15.08829143 60200,6917.914,95.438,541.04,538.517,0.0
